DMSP 5D-3 F16 (USA 172) 
1 28054U 03048A   26196.79924769 -.00000058  00000+0 -67675-5 0  9991
2 28054  98.9897 220.8159 0008085  69.6715 282.1018 14.14484785173529
METEOSAT-9 (MSG-2)      
1 28912U 05049B   26196.70868994  .00000110  00000+0  00000+0 0  9995
2 28912   9.4242  53.8824 0002207 356.2900 184.1676  1.00272260  7281
DMSP 5D-3 F17 (USA 191) 
1 29522U 06050A   26196.87843970 -.00000036  00000+0  36007-5 0  9991
2 29522  98.7387 202.8624 0009682 340.8698  19.2111 14.14996214 16486
FENGYUN 3A              
1 32958U 08026A   26196.45213659  .00000024  00000+0  32109-4 0  9996
2 32958  98.6886 136.7574 0009661  51.1669 309.0369 14.19576552939418
GOES 14                 
1 35491U 09033A   26196.79563580 -.00000370  00000+0  00000+0 0  9993
2 35491   1.7615  82.6838 0001935  40.3025 221.7758  1.00097780  6876
DMSP 5D-3 F18 (USA 210) 
1 35951U 09057A   26196.85162262  .00000168  00000+0  11001-3 0  9990
2 35951  98.9056 177.5611 0011270 163.6517 196.5022 14.14911915863648
EWS-G2 (GOES 15)        
1 36411U 10008A   26196.62058610  .00000011  00000+0  00000+0 0  9996
2 36411   1.3537  82.4543 0005259  54.0034  83.7244  1.00268697 59921
COMS 1                  
1 36744U 10032A   26196.05061451 -.00000257  00000+0  00000+0 0  9999
2 36744   4.8746  75.0193 0011292  14.6864 184.0547  0.99167988 51365
FENGYUN 3B              
1 37214U 10059A   26196.88399632 -.00000406  00000+0 -18666-3 0  9995
2 37214  98.9607 243.0177 0023184 104.5929   7.1599 14.14845562811483
SUOMI NPP               
1 37849U 11061A   26196.81685961  .00000010  00000+0  25835-4 0  9995
2 37849  98.7955 137.4983 0000772 210.5327 149.5804 14.19522642762504
METEOSAT-10 (MSG-3)     
1 38552U 12035B   26196.77092949 -.00000020  00000+0  00000+0 0  9996
2 38552   4.7376  60.8781 0001173  16.4116 133.9022  1.00270979 51149
METOP-B                 
1 38771U 12049A   26196.76830693  .00000050  00000+0  42600-4 0  9998
2 38771  98.6490 247.6951 0001093 252.2026 107.9032 14.21446519717329
INSAT-3D                
1 39216U 13038B   26196.79658916 -.00000351  00000+0  00000+0 0  9999
2 39216   1.9979  82.1766 0000531  79.4469 188.2762  1.00268236 47368
FENGYUN 3C              
1 39260U 13052A   26196.87853655  .00000029  00000+0  35733-4 0  9997
2 39260  98.4999 169.4389 0013644 303.8506  56.1370 14.15760898662626
METEOR-M 2              
1 40069U 14037A   26196.86465024 -.00000268  00000+0 -10319-3 0  9997
2 40069  98.5126 171.5899 0005145 324.8837  35.2002 14.21468417623395
HIMAWARI-8              
1 40267U 14060A   26196.79875581 -.00000286  00000+0  00000+0 0  9999
2 40267   0.0173  11.3382 0001103 156.8271 193.6951  1.00271281 43042
FENGYUN 2G              
1 40367U 14090A   26196.66875237 -.00000315  00000+0  00000+0 0  9990
2 40367   5.7079  72.4671 0004288 171.8076  29.3146  1.00280690 42286
METEOSAT-11 (MSG-4)     
1 40732U 15034A   26196.77274950  .00000050  00000+0  00000+0 0  9997
2 40732   3.2704  70.9279 0002165 354.2964 155.8297  1.00272040  7500
ELEKTRO-L 2             
1 41105U 15074A   26196.83934060 -.00000131  00000+0  00000+0 0  9999
2 41105   6.7636  70.1661 0001007 211.9143 299.2613  1.00272144 38791
SENTINEL-3A             
1 41335U 16011A   26196.82954410  .00000047  00000+0  37553-4 0  9999
2 41335  98.6237 263.7998 0001358  89.6677 270.4659 14.26739862542144
INSAT-3DR               
1 41752U 16054A   26196.78562764 -.00000087  00000+0  00000+0 0  9998
2 41752   0.0714  88.7177 0010557 181.1847  20.5444  1.00270763 36104
HIMAWARI-9              
1 41836U 16064A   26196.79875581 -.00000285  00000+0  00000+0 0  9997
2 41836   0.0414 249.0438 0001961 282.8218 190.0580  1.00271760 35499
GOES 16                 
1 41866U 16071A   26196.67891501 -.00000101  00000+0  00000+0 0  9992
2 41866   0.4052  85.4652 0000533  94.4235 253.3464  1.00270998 35388
FENGYUN 4A              
1 41882U 16077A   26196.86672139 -.00000369  00000+0  00000+0 0  9997
2 41882   2.3930  79.9483 0008499 159.6393 129.8761  1.00267758 35219
CYGFM05                 
1 41884U 16078A   26196.77045763  .00016560  00000+0  21486-3 0  9991
2 41884  34.9568  71.1367 0005840  42.9042 317.2137 15.57874380533211
CYGFM04                 
1 41885U 16078B   26196.84039866  .00020801  00000+0  22046-3 0  9993
2 41885  34.9324  36.8674 0004144  92.5191 267.6009 15.63106576533480
CYGFM02                 
1 41886U 16078C   26196.84737140  .00025768  00000+0  23925-3 0  9998
2 41886  34.9405  30.4771 0004912  95.7422 264.3865 15.66393199533660
CYGFM01                 
1 41887U 16078D   26196.74631547  .00017220  00000+0  21737-3 0  9995
2 41887  34.9396  72.1167 0005888  35.5934 324.5183 15.58593231533162
CYGFM08                 
1 41888U 16078E   26196.78284265  .00019002  00000+0  21463-3 0  9997
2 41888  34.9431  50.6695 0006103  74.9303 285.2098 15.61478253533447
CYGFM07                 
1 41890U 16078G   26196.80404284  .00019361  00000+0  21782-3 0  9990
2 41890  34.9447  38.8437 0004571  92.2180 267.9069 15.61588468533470
CYGFM03                 
1 41891U 16078H   26196.83917279  .00019620  00000+0  22081-3 0  9998
2 41891  34.9402  40.5389 0004465  74.1208 286.0010 15.61576790533451
