OBJECT_NAME,OBJECT_ID,EPOCH,MEAN_MOTION,ECCENTRICITY,INCLINATION,RA_OF_ASC_NODE,ARG_OF_PERICENTER,MEAN_ANOMALY,EPHEMERIS_TYPE,CLASSIFICATION_TYPE,NORAD_CAT_ID,ELEMENT_SET_NO,REV_AT_EPOCH,BSTAR,MEAN_MOTION_DOT,MEAN_MOTION_DDOT
DMSP 5D-3 F16 (USA 172),2003-048A,2026-07-15T19:10:55.000416,14.14484785,.0008085,98.9897,220.8159,69.6715,282.1018,0,U,28054,999,17352,-.67675E-5,-.58E-6,0
METEOSAT-9 (MSG-2),2005-049B,2026-07-15T17:00:30.810816,1.00272260,.0002207,9.4242,53.8824,356.2900,184.1676,0,U,28912,999,728,0,.11E-5,0
DMSP 5D-3 F17 (USA 191),2006-050A,2026-07-15T21:04:57.190080,14.14996214,.0009682,98.7387,202.8624,340.8698,19.2111,0,U,29522,999,1648,.36007E-5,-.36E-6,0
FENGYUN 3A,2008-026A,2026-07-15T10:51:04.601376,14.19576552,.00096614,98.6886,136.7574,51.1669,309.0369,0,U,32958,999,93941,.3210857E-4,.24E-6,0
GOES 14,2009-033A,2026-07-15T19:05:42.933120,1.00097780,.0001935,1.7615,82.6838,40.3025,221.7758,0,U,35491,999,687,0,-.37E-5,0
DMSP 5D-3 F18 (USA 210),2009-057A,2026-07-15T20:26:20.194368,14.14911915,.001127,98.9056,177.5611,163.6517,196.5022,0,U,35951,999,86364,.11001E-3,.168E-5,0
EWS-G2 (GOES 15),2010-008A,2026-07-15T14:53:38.639040,1.00268697,.0005259,1.3537,82.4543,54.0034,83.7244,0,U,36411,999,5992,0,.11E-6,0
COMS 1,2010-032A,2026-07-15T01:12:53.093664,0.99167988,.00112925,4.8746,75.0193,14.6864,184.0547,0,U,36744,999,5136,0,-.257E-5,0
FENGYUN 3B,2010-059A,2026-07-15T21:12:57.282048,14.14845562,.0023184,98.9607,243.0177,104.5929,7.1599,0,U,37214,999,81148,-.18666E-3,-.406E-5,0
SUOMI NPP,2011-061A,2026-07-15T19:36:16.670304,14.19522642,.0000772,98.7955,137.4983,210.5327,149.5804,0,U,37849,999,76250,.25835E-4,.1E-6,0
METEOSAT-10 (MSG-3),2012-035B,2026-07-15T18:30:08.307936,1.00270979,.0001173,4.7376,60.8781,16.4116,133.9022,0,U,38552,999,5114,0,-.2E-6,0
METOP-B,2012-049A,2026-07-15T18:26:21.718752,14.21446519,.0001093,98.6490,247.6951,252.2026,107.9032,0,U,38771,999,71732,.426E-4,.5E-6,0
INSAT-3D,2013-038B,2026-07-15T19:07:05.303424,1.00268236,.0000531,1.9979,82.1766,79.4469,188.2762,0,U,39216,999,4736,0,-.351E-5,0
FENGYUN 3C,2013-052A,2026-07-15T21:05:05.557920,14.15760898,.0013644,98.4999,169.4389,303.8506,56.1370,0,U,39260,999,66262,.35733E-4,.29E-6,0
METEOR-M 2,2014-037A,2026-07-15T20:45:05.780736,14.21468417,.0005145,98.5126,171.5899,324.8837,35.2002,0,U,40069,999,62339,-.10319E-3,-.268E-5,0
HIMAWARI-8,2014-060A,2026-07-15T19:10:12.501984,1.00271281,.0001103,0.0173,11.3382,156.8271,193.6951,0,U,40267,999,4304,0,-.286E-5,0
FENGYUN 2G,2014-090A,2026-07-15T16:03:00.204768,1.00280690,.0004288,5.7079,72.4671,171.8076,29.3146,0,U,40367,999,4228,0,-.315E-5,0
METEOSAT-11 (MSG-4),2015-034A,2026-07-15T18:32:45.556800,1.00272040,.0002165,3.2704,70.9279,354.2964,155.8297,0,U,40732,999,750,0,.5E-6,0
ELEKTRO-L 2,2015-074A,2026-07-15T20:08:39.027840,1.00272144,.0001007,6.7636,70.1661,211.9143,299.2613,0,U,41105,999,3879,0,-.131E-5,0
SENTINEL-3A,2016-011A,2026-07-15T19:54:32.610240,14.26739862,.0001358,98.6237,263.7998,89.6677,270.4659,0,U,41335,999,54214,.37553E-4,.47E-6,0
INSAT-3DR,2016-054A,2026-07-15T18:51:18.228096,1.00270763,.0010557,0.0714,88.7177,181.1847,20.5444,0,U,41752,999,3610,0,-.87E-6,0
HIMAWARI-9,2016-064A,2026-07-15T19:10:12.501984,1.00271760,.0001961,0.0414,249.0438,282.8218,190.0580,0,U,41836,999,3549,0,-.285E-5,0
GOES 16,2016-071A,2026-07-15T16:17:38.256864,1.00270998,.0000533,0.4052,85.4652,94.4235,253.3464,0,U,41866,999,3538,0,-.101E-5,0
FENGYUN 4A,2016-077A,2026-07-15T20:48:04.728096,1.00267758,.0008499,2.3930,79.9483,159.6393,129.8761,0,U,41882,999,3521,0,-.369E-5,0
CYGFM05,2016-078A,2026-07-15T18:29:27.539232,15.57874380,.000584,34.9568,71.1367,42.9042,317.2137,0,U,41884,999,53321,.21486E-3,.1656E-3,0
CYGFM04,2016-078B,2026-07-15T20:10:10.444224,15.63106576,.0004144,34.9324,36.8674,92.5191,267.6009,0,U,41885,999,53348,.22046E-3,.20801E-3,0
CYGFM02,2016-078C,2026-07-15T20:20:12.888960,15.66393199,.0004912,34.9405,30.4771,95.7422,264.3865,0,U,41886,999,53366,.23925E-3,.25768E-3,0
CYGFM01,2016-078D,2026-07-15T17:54:41.656608,15.58593231,.0005888,34.9396,72.1167,35.5934,324.5183,0,U,41887,999,53316,.21737E-3,.1722E-3,0
CYGFM08,2016-078E,2026-07-15T18:47:17.604960,15.61478253,.0006103,34.9431,50.6695,74.9303,285.2098,0,U,41888,999,53344,.21463E-3,.19002E-3,0
CYGFM07,2016-078G,2026-07-15T19:17:49.301376,15.61588468,.0004571,34.9447,38.8437,92.2180,267.9069,0,U,41890,999,53347,.21782E-3,.19361E-3,0
CYGFM03,2016-078H,2026-07-15T20:08:24.529056,15.61576790,.0004465,34.9402,40.5389,74.1208,286.0010,0,U,41891,999,53345,.22081E-3,.1962E-3,0
